{"type": "FeatureCollection", "features": [ {"type": "Feature", "properties": {"norad_id": 52984, "name": "COSMOS 2557 (706K)", "group": "gnss", "lat": 55.273607279130125, "lon": 97.45687905583377, "alt_km": 19157.13050384526, "timestamp": "2025-12-08T17:43:05.172878+00:00", "meta": {"OBJECT_NAME": "COSMOS 2557 (706K)", "OBJECT_ID": "2022-075A", "EPOCH": "2025-12-07T04:21:00.419904", "MEAN_MOTION": 2.13101754, "ECCENTRICITY": 0.00137049, "INCLINATION": 64.4129, "RA_OF_ASC_NODE": 321.247, "ARG_OF_PERICENTER": 276.9, "MEAN_ANOMALY": 82.939, "EPHEMERIS_TYPE": 0, "CLASSIFICATION_TYPE": "U", "NORAD_CAT_ID": 52984, "ELEMENT_SET_NO": 999, "REV_AT_EPOCH": 2662, "BSTAR": 0, "MEAN_MOTION_DOT": -5.2e-07, "MEAN_MOTION_DDOT": 0}, "tle": {"line1": "1 52984U 22075A   25341.18125486 -.00000052  00000+0  00000+0 0  9990", "line2": "2 52984  64.4129 321.2470 0013704 276.9000  82.9390  2.13101754 26625"}}, "geometry": {"type": "Point", "coordinates": [97.45687905583377, 55.273607279130125]}}, {"type": "Feature", "properties": {"norad_id": 54031, "name": "COSMOS 2559 (707K)", "group": "gnss", "lat": -59.74043154704357, "lon": -163.4285981759677, "alt_km": 19121.412146739665, "timestamp": "2025-12-08T17:43:05.172891+00:00", "meta": {"OBJECT_NAME": "COSMOS 2559 (707K)", "OBJECT_ID": "2022-130A", "EPOCH": "2025-12-07T22:32:04.492896", "MEAN_MOTION": 2.1310126, "ECCENTRICITY": 0.00119368, "INCLINATION": 64.385, "RA_OF_ASC_NODE": 321.31, "ARG_OF_PERICENTER": 192.6499, "MEAN_ANOMALY": 167.316, "EPHEMERIS_TYPE": 0, "CLASSIFICATION_TYPE": "U", "NORAD_CAT_ID": 54031, "ELEMENT_SET_NO": 999, "REV_AT_EPOCH": 2461, "BSTAR": 0, "MEAN_MOTION_DOT": -5.2e-07, "MEAN_MOTION_DDOT": 0}, "tle": {"line1": "1 54031U 22130A   25341.93894089 -.00000052  00000+0  00000+0 0  9992", "line2": "2 54031  64.3850 321.3100 0011936 192.6499 167.3160  2.13101260 24614"}}, "geometry": {"type": "Point", "coordinates": [-163.4285981759677, -59.74043154704357]}}, {"type": "Feature", "properties": {"norad_id": 54377, "name": "COSMOS 2564 (761)", "group": "gnss", "lat": 11.447657054307175, "lon": -155.47678525070677, "alt_km": 19150.50281646862, "timestamp": "2025-12-08T17:43:05.172902+00:00", "meta": {"OBJECT_NAME": "COSMOS 2564 (761)", "OBJECT_ID": "2022-161A", "EPOCH": "2025-12-06T20:16:19.958016", "MEAN_MOTION": 2.13101987, "ECCENTRICITY": 0.0008674, "INCLINATION": 64.7378, "RA_OF_ASC_NODE": 199.0949, "ARG_OF_PERICENTER": 205.6872, "MEAN_ANOMALY": 154.3558, "EPHEMERIS_TYPE": 0, "CLASSIFICATION_TYPE": "U", "NORAD_CAT_ID": 54377, "ELEMENT_SET_NO": 999, "REV_AT_EPOCH": 2353, "BSTAR": 0, "MEAN_MOTION_DOT": 6.7e-07, "MEAN_MOTION_DDOT": 0}, "tle": {"line1": "1 54377U 22161A   25340.84467544  .00000067  00000+0  00000+0 0  9995", "line2": "2 54377  64.7378 199.0949 0008674 205.6872 154.3558  2.13101987 23535"}}, "geometry": {"type": "Point", "coordinates": [-155.47678525070677, 11.447657054307175]}}, {"type": "Feature", "properties": {"norad_id": 55268, "name": "GPS BIII-6  (PRN 28)", "group": "gnss", "lat": 4.860623774275226, "lon": -27.408797176076714, "alt_km": 20192.122289079238, "timestamp": "2025-12-08T17:43:05.172914+00:00", "meta": {"OBJECT_NAME": "GPS BIII-6  (PRN 28)", "OBJECT_ID": "2023-009A", "EPOCH": "2025-12-08T05:52:26.989248", "MEAN_MOTION": 2.00555991, "ECCENTRICITY": 0.0003615, "INCLINATION": 55.1046, "RA_OF_ASC_NODE": 156.0217, "ARG_OF_PERICENTER": 356.7859, "MEAN_ANOMALY": 180.9144, "EPHEMERIS_TYPE": 0, "CLASSIFICATION_TYPE": "U", "NORAD_CAT_ID": 55268, "ELEMENT_SET_NO": 999, "REV_AT_EPOCH": 2141, "BSTAR": 0, "MEAN_MOTION_DOT": 5.9e-07, "MEAN_MOTION_DDOT": 0}, "tle": {"line1": "1 55268U 23009A   25342.24475682  .00000059  00000+0  00000+0 0  9996", "line2": "2 55268  55.1046 156.0217 0003615 356.7859 180.9144  2.00555991 21410"}}, "geometry": {"type": "Point", "coordinates": [-27.408797176076714, 4.860623774275226]}}, {"type": "Feature", "properties": {"norad_id": 56564, "name": "BEIDOU-3 G4 (C62)", "group": "gnss", "lat": -0.3009303745427662, "lon": 143.5505570022171, "alt_km": 35775.6880320999, "timestamp": "2025-12-08T17:43:05.172927+00:00", "meta": {"OBJECT_NAME": "BEIDOU-3 G4 (C62)", "OBJECT_ID": "2023-066A", "EPOCH": "2025-12-08T05:48:19.884384", "MEAN_MOTION": 1.0027111, "ECCENTRICITY": 0.00030725, "INCLINATION": 0.825, "RA_OF_ASC_NODE": 301.6947, "ARG_OF_PERICENTER": 236.2465, "MEAN_ANOMALY": 146.4607, "EPHEMERIS_TYPE": 0, "CLASSIFICATION_TYPE": "U", "NORAD_CAT_ID": 56564, "ELEMENT_SET_NO": 999, "REV_AT_EPOCH": 948, "BSTAR": 0, "MEAN_MOTION_DOT": -1.08e-06, "MEAN_MOTION_DDOT": 0}, "tle": {"line1": "1 56564U 23066A   25342.24189681 -.00000108  00000+0  00000+0 0  9996", "line2": "2 56564   0.8250 301.6947 0003072 236.2465 146.4607  1.00271110  9485"}}, "geometry": {"type": "Point", "coordinates": [143.5505570022171, -0.3009303745427662]}}, {"type": "Feature", "properties": {"norad_id": 56759, "name": "NVS-01 (IRNSS-1J)", "group": "gnss", "lat": -1.7133304525227255, "lon": 112.86713635984864, "alt_km": 35819.08397508214, "timestamp": "2025-12-08T17:43:05.172939+00:00", "meta": {"OBJECT_NAME": "NVS-01 (IRNSS-1J)", "OBJECT_ID": "2023-076A", "EPOCH": "2025-12-08T07:22:20.554176", "MEAN_MOTION": 1.00265161, "ECCENTRICITY": 0.000869, "INCLINATION": 2.6293, "RA_OF_ASC_NODE": 251.7602, "ARG_OF_PERICENTER": 8.1194, "MEAN_ANOMALY": 57.4793, "EPHEMERIS_TYPE": 0, "CLASSIFICATION_TYPE": "U", "NORAD_CAT_ID": 56759, "ELEMENT_SET_NO": 999, "REV_AT_EPOCH": 920, "BSTAR": 0, "MEAN_MOTION_DOT": -3.33e-06, "MEAN_MOTION_DDOT": 0}, "tle": {"line1": "1 56759U 23076A   25342.30718234 -.00000333  00000+0  00000+0 0  9992", "line2": "2 56759   2.6293 251.7602 0008690   8.1194  57.4793  1.00265161  9203"}}, "geometry": {"type": "Point", "coordinates": [112.86713635984864, -1.7133304525227255]}}, {"type": "Feature", "properties": {"norad_id": 57517, "name": "COSMOS 2569 (703K)", "group": "gnss", "lat": 2.195902600303016, "lon": 80.07004888308516, "alt_km": 19123.358888203544, "timestamp": "2025-12-08T17:43:05.172953+00:00", "meta": {"OBJECT_NAME": "COSMOS 2569 (703K)", "OBJECT_ID": "2023-114A", "EPOCH": "2025-12-07T19:07:05.045952", "MEAN_MOTION": 2.13103857, "ECCENTRICITY": 0.00103488, "INCLINATION": 65.1916, "RA_OF_ASC_NODE": 79.0806, "ARG_OF_PERICENTER": 287.0317, "MEAN_ANOMALY": 72.8691, "EPHEMERIS_TYPE": 0, "CLASSIFICATION_TYPE": "U", "NORAD_CAT_ID": 57517, "ELEMENT_SET_NO": 999, "REV_AT_EPOCH": 1818, "BSTAR": 0, "MEAN_MOTION_DOT": -1.2e-07, "MEAN_MOTION_DDOT": 0}, "tle": {"line1": "1 57517U 23114A   25341.79658618 -.00000012  00000+0  00000+0 0  9993", "line2": "2 57517  65.1916  79.0806 0010348 287.0317  72.8691  2.13103857 18180"}}, "geometry": {"type": "Point", "coordinates": [80.07004888308516, 2.195902600303016]}}, {"type": "Feature", "properties": {"norad_id": 58654, "name": "BEIDOU-3 M28 (C50)", "group": "gnss", "lat": 31.652997080118862, "lon": 93.7125658521155, "alt_km": 21528.426344654876, "timestamp": "2025-12-08T17:43:05.172964+00:00", "meta": {"OBJECT_NAME": "BEIDOU-3 M28 (C50)", "OBJECT_ID": "2023-207A", "EPOCH": "2025-12-06T12:45:22.310208", "MEAN_MOTION": 1.86229594, "ECCENTRICITY": 0.00021908, "INCLINATION": 55.5792, "RA_OF_ASC_NODE": 68.8117, "ARG_OF_PERICENTER": 267.5881, "MEAN_ANOMALY": 92.402, "EPHEMERIS_TYPE": 0, "CLASSIFICATION_TYPE": "U", "NORAD_CAT_ID": 58654, "ELEMENT_SET_NO": 999, "REV_AT_EPOCH": 1325, "BSTAR": 0, "MEAN_MOTION_DOT": -4.7e-07, "MEAN_MOTION_DDOT": 0}, "tle": {"line1": "1 58654U 23207A   25340.53150822 -.00000047  00000+0  00000+0 0  9992", "line2": "2 58654  55.5792  68.8117 0002190 267.5881  92.4020  1.86229594 13257"}}, "geometry": {"type": "Point", "coordinates": [93.7125658521155, 31.652997080118862]}}, {"type": "Feature", "properties": {"norad_id": 58655, "name": "BEIDOU-3 M26 (C48)", "group": "gnss", "lat": 4.031009192171019, "lon": -114.0322248047974, "alt_km": 21525.72697551206, "timestamp": "2025-12-08T17:43:05.172976+00:00", "meta": {"OBJECT_NAME": "BEIDOU-3 M26 (C48)", "OBJECT_ID": "2023-207B", "EPOCH": "2025-12-07T09:40:28.837056", "MEAN_MOTION": 1.86231105, "ECCENTRICITY": 0.0003615, "INCLINATION": 55.5821, "RA_OF_ASC_NODE": 68.7685, "ARG_OF_PERICENTER": 253.2983, "MEAN_ANOMALY": 106.6805, "EPHEMERIS_TYPE": 0, "CLASSIFICATION_TYPE": "U", "NORAD_CAT_ID": 58655, "ELEMENT_SET_NO": 999, "REV_AT_EPOCH": 1325, "BSTAR": 0, "MEAN_MOTION_DOT": -4.6e-07, "MEAN_MOTION_DDOT": 0}, "tle": {"line1": "1 58655U 23207B   25341.40311154 -.00000046  00000+0  00000+0 0  9996", "line2": "2 58655  55.5821  68.7685 0003615 253.2983 106.6805  1.86231105 13258"}}, "geometry": {"type": "Point", "coordinates": [-114.0322248047974, 4.031009192171019]}}, {"type": "Feature", "properties": {"norad_id": 59598, "name": "GSAT0225 (GALILEO 29)", "group": "gnss", "lat": -14.40369527085401, "lon": 96.03883195188621, "alt_km": 23230.106628732843, "timestamp": "2025-12-08T17:43:05.172989+00:00", "meta": {"OBJECT_NAME": "GSAT0225 (GALILEO 29)", "OBJECT_ID": "2024-079A", "EPOCH": "2025-12-07T07:17:21.433056", "MEAN_MOTION": 1.70474562, "ECCENTRICITY": 0.00020328, "INCLINATION": 54.9984, "RA_OF_ASC_NODE": 106.4468, "ARG_OF_PERICENTER": 173.4457, "MEAN_ANOMALY": 8.4253, "EPHEMERIS_TYPE": 0, "CLASSIFICATION_TYPE": "U", "NORAD_CAT_ID": 59598, "ELEMENT_SET_NO": 999, "REV_AT_EPOCH": 1004, "BSTAR": 0, "MEAN_MOTION_DOT": 7e-08, "MEAN_MOTION_DDOT": 0}, "tle": {"line1": "1 59598U 24079A   25341.30372029  .00000007  00000+0  00000+0 0  9994", "line2": "2 59598  54.9984 106.4468 0002032 173.4457   8.4253  1.70474562 10047"}}, "geometry": {"type": "Point", "coordinates": [96.03883195188621, -14.40369527085401]}}]}